ORBCOMM FM37 [-]        
1 33064U 08031E   24056.39570575  .00002322  00000+0  36350-3 0  9994
2 33064  48.4399  88.2165 0005159 133.7635 240.0683 14.75954285843708
ORBCOMM FM40 [-]        
1 33065U 08031F   24055.80979927  .00003098  00000+0  46194-3 0  9992
2 33065  48.4423  81.0625 0006446 139.3887  30.6577 14.77179336843321
VESSELSAT 1 [-]         
1 37840U 11058C   24056.47589036  .00000444  00000+0  98039-4 0  9990
2 37840  19.9614 103.9753 0013659 333.4929  26.4776 14.11119080638970
ORBCOMM FM109 [+]       
1 40086U 14040A   24055.84065069  .00001400  00000+0  35036-3 0  9995
2 40086  47.0036 112.2764 0002863 276.6559  83.3999 14.56324011511298
ORBCOMM FM107 [+]       
1 40087U 14040B   24056.14955055  .00001388  00000+0  34775-3 0  9997
2 40087  47.0050 111.7783 0002324 255.2036 104.8591 14.56326883511459
ORBCOMM FM106 [-]       
1 40088U 14040C   24056.19769178  .00001928  00000+0  37534-3 0  9998
2 40088  47.0616 330.2283 0017985   7.8946 352.2224 14.66654113513456
ORBCOMM FM111 [-]       
1 40089U 14040D   24055.82500563  .00004217  00000+0  55813-3 0  9993
2 40089  47.0017 241.8868 0032399  70.8418 289.5979 14.81146854519199
ORBCOMM FM104 [-]       
1 40090U 14040E   24056.52592121  .00001058  00000+0  28220-3 0  9996
2 40090  47.0048 138.0990 0017336 187.2228 172.8409 14.54897318511129
